[
    {
        "Altitude(m)": 611965.1723911426,
        "Argument of Periapsis(deg)": 0.0,
        "Eccentricity": 0.0,
        "Inclination(deg)": 60.0,
        "Latitude(deg)": 59.140122264592776,
        "Longitude(deg)": -51.0302906802846,
        "Mean Anomaly(deg)": -278.1818,
        "RAAN(deg)": 335.0,
        "Satellite Name": "Test1 1479",
        "Satellite Number": 1479,
        "Semi-Major Axis(m)": 6980739.136638005,
        "Time(s)": 0
    },
    {
        "Altitude(m)": 611995.7983571811,
        "Argument of Periapsis(deg)": 0.00010418945913296404,
        "Eccentricity": 0.0,
        "Inclination(deg)": 60.0,
        "Latitude(deg)": 59.28322354645938,
        "Longitude(deg)": -49.896930402516666,
        "Mean Anomaly(deg)": -277.56169385453813,
        "RAAN(deg)": 334.99957995086027,
        "Satellite Name": "Test1 1479",
        "Satellite Number": 1479,
        "Semi-Major Axis(m)": 6980739.136638005,
        "Time(s)": 10
    }
]